NORAD_CAT_ID,OBJECT_NAME,OBJECT_TYPE,EPOCH,MEAN_MOTION,ECCENTRICITY,INCLINATION,RA_OF_ASC_NODE,ARG_OF_PERICENTER,MEAN_ANOMALY,BSTAR,MEAN_MOTION_DOT,MEAN_MOTION_DDOT,TLE_LINE0,TLE_LINE1,TLE_LINE2,SEMIMAJOR_AXIS,PERIOD,APOGEE,PERIGEE,DECAYED
52359.0,STARLINK-3853,PAYLOAD,2023-04-09 17:41:35,15.08838929,0.000109,53.2155,299.8866,80.7309,279.3807,7.1691e-05,8.53e-06,0.0,0 STARLINK-3853,1 52359U 22045AE  23099.73721634  .00000853  00000-0  71691-4 0  9997,2 52359  53.2155 299.8866 0001090  80.7309 279.3807 15.08838929 55012,6917.884,95.438,540.503,538.995,0.0
52359.0,STARLINK-3853,PAYLOAD,2023-04-09 19:16:58,15.08846383,0.0001276,53.2157,299.5888,88.6352,271.4787,-0.00017271,-3.036e-05,0.0,0 STARLINK-3853,1 52359U 22045AE  23099.80345351 -.00003036  00000-0 -17271-3 0  9994,2 52359  53.2157 299.5888 0001276  88.6352 271.4787 15.08846383 55020,6917.861,95.437,540.609,538.843,0.0
52359.0,STARLINK-3853,PAYLOAD,2023-04-10 01:38:30,15.0884561,0.0001069,53.215,298.3993,79.0996,281.0116,0.00016087,2.274e-05,0.0,0 STARLINK-3853,1 52359U 22045AE  23100.06841290  .00002274  00000-0  16087-3 0  9993,2 52359  53.2150 298.3993 0001069  79.0996 281.0116 15.08845610 55064,6917.863,95.437,540.468,538.989,0.0
52359.0,STARLINK-3853,PAYLOAD,2023-04-10 19:07:45,15.08842611,8.79e-05,53.2162,295.1253,120.6866,239.4213,3.4962e-05,2.69e-06,0.0,0 STARLINK-3853,1 52359U 22045AE  23100.79705259  .00000269  00000-0  34962-4 0  9992,2 52359  53.2162 295.1253 0000879 120.6866 239.4213 15.08842611 55173,6917.872,95.437,540.345,539.129,0.0
52359.0,STARLINK-3853,PAYLOAD,2023-04-10 23:53:54,15.08851229,9.21e-05,53.2159,294.2357,91.3336,268.7762,0.00020708,3.01e-05,0.0,0 STARLINK-3853,1 52359U 22045AE  23100.99577138  .00003010  00000-0  20708-3 0  9996,2 52359  53.2159 294.2357 0000921  91.3336 268.7762 15.08851229 55201,6917.846,95.437,540.348,539.074,0.0
52359.0,STARLINK-3853,PAYLOAD,2023-04-11 12:37:00,15.08837714,8.77e-05,53.2153,291.8566,90.1183,269.991,8.3049e-05,1.034e-05,0.0,0 STARLINK-3853,1 52359U 22045AE  23101.52569810  .00001034  00000-0  83049-4 0  9996,2 52359  53.2153 291.8566 0000877  90.1183 269.9910 15.08837714 55286,6917.887,95.438,540.359,539.146,0.0
52359.0,STARLINK-3853,PAYLOAD,2023-04-11 18:58:32,15.08846091,0.0001051,53.2153,290.6671,87.1022,273.009,0.00011392,1.526e-05,0.0,0 STARLINK-3853,1 52359U 22045AE  23101.79065437  .00001526  00000-0  11392-3 0  9998,2 52359  53.2153 290.6671 0001051  87.1022 273.0090 15.08846091 55321,6917.862,95.437,540.454,539.0,0.0
52359.0,STARLINK-3853,PAYLOAD,2023-04-12 12:27:47,15.08837259,0.0001093,53.2141,287.3991,54.0222,306.0872,0.00010111,1.322e-05,0.0,0 STARLINK-3853,1 52359U 22045AE  23102.51930091  .00001322  00000-0  10111-3 0  9998,2 52359  53.2141 287.3991 0001093  54.0222 306.0872 15.08837259 55430,6917.889,95.438,540.51,538.998,0.0
52359.0,STARLINK-3853,PAYLOAD,2023-04-12 22:00:06,15.08842817,0.0001072,53.2159,285.6137,66.6117,293.4988,5.9747e-05,6.63e-06,0.0,0 STARLINK-3853,1 52359U 22045AE  23102.91673859  .00000663  00000-0  59747-4 0  9994,2 52359  53.2159 285.6137 0001072  66.6117 293.4988 15.08842817 55490,6917.872,95.437,540.478,538.995,0.0
52359.0,STARLINK-3853,PAYLOAD,2023-04-14 12:09:21,15.0883918,0.0001493,53.2143,278.4751,81.2808,278.8353,5.7776e-05,6.32e-06,0.0,0 STARLINK-3853,1 52359U 22045AE  23104.50650095  .00000632  00000-0  57776-4 0  9994,2 52359  53.2143 278.4751 0001493  81.2808 278.8353 15.08839180 55731,6917.883,95.438,540.781,538.715,0.0
52359.0,STARLINK-3853,PAYLOAD,2023-04-14 18:30:53,15.0884261,0.0001055,53.216,277.2859,73.7882,286.3226,8.7168e-05,1.1e-05,0.0,0 STARLINK-3853,1 52359U 22045AE  23104.77145810  .00001100  00000-0  87168-4 0  9996,2 52359  53.2160 277.2859 0001055  73.7882 286.3226 15.08842610 55777,6917.872,95.437,540.467,539.008,0.0
52359.0,STARLINK-3853,PAYLOAD,2023-04-15 10:24:45,15.08837099,8.09e-05,53.217,274.315,72.6437,287.4644,2.9928e-05,1.89e-06,0.0,0 STARLINK-3853,1 52359U 22045AE  23105.43386115  .00000189  00000-0  29928-4 0  9991,2 52359  53.2170 274.3150 0000809  72.6437 287.4644 15.08837099 55872,6917.889,95.438,540.314,539.195,0.0
52359.0,STARLINK-3853,PAYLOAD,2023-04-15 21:32:26,15.08853119,9.15e-05,53.2167,272.232,85.7681,274.3416,0.00017059,2.429e-05,0.0,0 STARLINK-3853,1 52359U 22045AE  23105.89753189  .00002429  00000-0  17059-3 0  9990,2 52359  53.2167 272.2320 0000915  85.7681 274.3416 15.08853119 55949,6917.84,95.437,540.338,539.072,0.0
52359.0,STARLINK-3853,PAYLOAD,2023-04-16 03:54:00,15.08833616,0.0001293,53.217,271.0425,89.6951,270.419,-3.7969e-05,-8.92e-06,0.0,0 STARLINK-3853,1 52359U 22045AE  23106.16250226 -.00000892  00000-0 -37969-4 0  9992,2 52359  53.2170 271.0425 0001293  89.6951 270.4190 15.08833616 55989,6917.9,95.438,540.659,538.87,0.0
52359.0,STARLINK-3853,PAYLOAD,2023-04-16 11:50:55,15.08835852,8.62e-05,53.2165,269.5554,91.1022,269.0069,9.1014e-05,1.161e-05,0.0,0 STARLINK-3853,1 52359U 22045AE  23106.49370156  .00001161  00000-0  91014-4 0  9992,2 52359  53.2165 269.5554 0000862  91.1022 269.0069 15.08835852 56036,6917.893,95.438,540.354,539.162,0.0
52359.0,STARLINK-3853,PAYLOAD,2023-04-16 19:47:50,15.0884891,9.43e-05,53.2155,268.0675,79.8374,280.2725,0.00022069,3.227e-05,0.0,0 STARLINK-3853,1 52359U 22045AE  23106.82489539  .00003227  00000-0  22069-3 0  9993,2 52359  53.2155 268.0675 0000943  79.8374 280.2725 15.08848910 56084,6917.853,95.437,540.371,539.066,0.0
52359.0,STARLINK-3853,PAYLOAD,2023-04-17 11:41:42,15.08837652,0.000103,53.2169,265.094,95.1782,264.9328,5.4635e-05,5.82e-06,0.0,0 STARLINK-3853,1 52359U 22045AE  23107.48730095  .00000582  00000-0  54635-4 0  9998,2 52359  53.2169 265.0940 0001030  95.1782 264.9328 15.08837652 56183,6917.888,95.438,540.465,539.04,0.0
52359.0,STARLINK-3853,PAYLOAD,2023-04-17 18:03:14,15.08847797,9.65e-05,53.2155,263.9042,83.9078,276.2024,0.0001282,1.754e-05,0.0,0 STARLINK-3853,1 52359U 22045AE  23107.75225582  .00001754  00000-0  12820-3 0  9999,2 52359  53.2155 263.9042 0000965  83.9078 276.2024 15.08847797 56222,6917.857,95.437,540.389,539.054,0.0
52359.0,STARLINK-3853,PAYLOAD,2023-04-18 09:57:06,15.0883319,0.0001027,53.2157,260.9302,92.9445,267.1665,2.8992e-05,1.74e-06,0.0,0 STARLINK-3853,1 52359U 22045AE  23108.41466379  .00000174  00000-0  28992-4 0  9997,2 52359  53.2157 260.9302 0001027  92.9445 267.1665 15.08833190 56321,6917.901,95.438,540.477,539.056,0.0
52359.0,STARLINK-3853,PAYLOAD,2023-04-18 16:18:39,15.08837514,0.0001169,53.2156,259.7423,84.4724,275.6401,7.2155e-06,-1.73e-06,0.0,0 STARLINK-3853,1 52359U 22045AE  23108.67962330 -.00000173  00000-0  72155-5 0  9994,2 52359  53.2156 259.7423 0001169  84.4724 275.6401 15.08837514 56363,6917.888,95.438,540.562,538.944,0.0
52359.0,STARLINK-3853,PAYLOAD,2023-04-19 09:47:53,15.0884075,9.88e-05,53.2155,256.4699,72.3013,287.8087,8.1056e-05,1.003e-05,0.0,0 STARLINK-3853,1 52359U 22045AE  23109.40826313  .00001003  00000-0  81056-4 0  9997,2 52359  53.2155 256.4699 0000988  72.3013 287.8087 15.08840750 56479,6917.878,95.438,540.427,539.06,0.0
52359.0,STARLINK-3853,PAYLOAD,2023-04-19 16:09:26,15.08841126,0.0001033,53.216,255.2809,71.728,288.3825,0.00010196,1.335e-05,0.0,0 STARLINK-3853,1 52359U 22045AE  23109.67322212  .00001335  00000-0  10196-3 0  9999,2 52359  53.2160 255.2809 0001033  71.7280 288.3825 15.08841126 56515,6917.877,95.437,540.457,539.027,0.0
52359.0,STARLINK-3853,PAYLOAD,2023-04-20 03:17:07,15.08848651,9.27e-05,53.2161,253.2004,87.7326,272.3773,5.0215e-05,5.12e-06,0.0,0 STARLINK-3853,1 52359U 22045AE  23110.13689618  .00000512  00000-0  50215-4 0  9991,2 52359  53.2161 253.2004 0000927  87.7326 272.3773 15.08848651 56582,6917.854,95.437,540.36,539.078,0.0
52359.0,STARLINK-3853,PAYLOAD,2023-04-20 09:38:41,15.08838034,0.0001367,53.2147,252.0095,91.2217,268.8932,0.00012188,1.652e-05,0.0,0 STARLINK-3853,1 52359U 22045AE  23110.40186372  .00001652  00000-0  12188-3 0  9992,2 52359  53.2147 252.0095 0001367  91.2217 268.8932 15.08838034 56627,6917.886,95.438,540.697,538.806,0.0
52359.0,STARLINK-3853,PAYLOAD,2023-04-20 16:00:13,15.08838665,0.0001129,53.2182,250.8218,88.3204,271.7917,6.6708e-05,7.74e-06,0.0,0 STARLINK-3853,1 52359U 22045AE  23110.66682483  .00000774  00000-0  66708-4 0  9996,2 52359  53.2182 250.8218 0001129  88.3204 271.7917 15.08838665 56668,6917.884,95.438,540.53,538.968,0.0
52359.0,STARLINK-3853,PAYLOAD,2023-04-21 19:01:46,15.0884433,9.04e-05,53.216,245.7651,79.1544,280.955,4.5669e-05,4.39e-06,0.0,0 STARLINK-3853,1 52359U 22045AE  23111.79290289  .00000439  00000-0  45669-4 0  9991,2 52359  53.2160 245.7651 0000904  79.1544 280.9550 15.08844330 56833,6917.867,95.437,540.358,539.107,0.0
52359.0,STARLINK-3853,PAYLOAD,2023-04-22 07:44:52,15.08833739,9.8e-05,53.2156,243.3871,89.8726,270.2378,6.3228e-05,7.19e-06,0.0,0 STARLINK-3853,1 52359U 22045AE  23112.32283051  .00000719  00000-0  63228-4 0  9992,2 52359  53.2156 243.3871 0000980  89.8726 270.2378 15.08833739 56910,6917.9,95.438,540.442,539.087,0.0
52359.0,STARLINK-3853,PAYLOAD,2023-04-22 15:41:47,15.08847132,9.85e-05,53.2159,241.8997,87.4871,272.6234,0.00016099,2.276e-05,0.0,0 STARLINK-3853,1 52359U 22045AE  23112.65401917  .00002276  00000-0  16099-3 0  9994,2 52359  53.2159 241.8997 0000985  87.4871 272.6234 15.08847132 56969,6917.859,95.437,540.405,539.042,0.0
52359.0,STARLINK-3853,PAYLOAD,2023-04-23 09:11:03,15.0882596,0.0001056,53.2171,238.6289,89.4968,270.6145,-5.5338e-05,-1.168e-05,0.0,0 STARLINK-3853,1 52359U 22045AE  23113.38267977 -.00001168  00000-0 -55338-4 0  9992,2 52359  53.2171 238.6289 0001056  89.4968 270.6145 15.08825960 57077,6917.923,95.438,540.519,539.058,0.0
52359.0,STARLINK-3853,PAYLOAD,2023-04-23 17:07:58,15.08838572,0.0001044,53.2162,237.1411,88.8839,271.2273,3.4388e-05,2.6e-06,0.0,0 STARLINK-3853,1 52359U 22045AE  23113.71387051  .00000260  00000-0  34388-4 0  9997,2 52359  53.2162 237.1411 0001044  88.8839 271.2273 15.08838572 57123,6917.885,95.438,540.472,539.028,0.0
